NORAD_CAT_ID,OBJECT_NAME,OBJECT_TYPE,EPOCH,MEAN_MOTION,ECCENTRICITY,INCLINATION,RA_OF_ASC_NODE,ARG_OF_PERICENTER,MEAN_ANOMALY,BSTAR,MEAN_MOTION_DOT,MEAN_MOTION_DDOT,TLE_LINE0,TLE_LINE1,TLE_LINE2,SEMIMAJOR_AXIS,PERIOD,APOGEE,PERIGEE,DECAYED
53729.0,STARLINK-4651,PAYLOAD,2022-10-16 14:00:01,15.73193064,0.000167,53.2151,67.8223,58.4567,10.979,0.00015477,0.00021149,0.0,0 STARLINK-4651,1 53729U 22107AF  22289.58334491  .00021149  00000-0  15477-3 0  9992,2 53729  53.2151  67.8223 0001670  58.4567  10.9790 15.73193064  1301,6727.915,91.534,350.904,348.656,0.0
53729.0,STARLINK-4651,PAYLOAD,2022-10-16 22:00:00,15.73218195,0.0001668,53.2147,66.1732,51.9226,106.4154,-8.1135e-05,-0.0001199999999999,0.0,0 STARLINK-4651,1 53729U 22107AF  22289.91667824 -.00012000  00000-0 -81135-4 0  9991,2 53729  53.2147  66.1732 0001668  51.9226 106.4154 15.73218195  1308,6727.843000000003,91.532,350.831,348.586,0.0
53729.0,STARLINK-4651,PAYLOAD,2022-10-17 06:00:00,15.73343747,0.0001085999999999,53.216,64.5205,55.7323,191.5345,-0.0038861999999999,-0.00516949,0.0,0 STARLINK-4651,1 53729U 22107AF  22290.25001157 -.00516949  00000-0 -38862-2 0  9999,2 53729  53.2160  64.5205 0001086  55.7323 191.5345 15.73343747  6746,6727.485,91.525,350.081,348.62,0.0
53729.0,STARLINK-4651,PAYLOAD,2022-10-17 14:00:01,15.730963699999998,0.0001163,53.2171,62.8716,44.1303,292.0066,-0.0089290999999999,-0.01115432,0.0,0 STARLINK-4651,1 53729U 22107AF  22290.58334491 -.01115432  00000-0 -89291-2 0  9990,2 53729  53.2171  62.8716 0001163  44.1303 292.0066 15.73096370  6791,6728.191,91.539,350.838,349.273,0.0
53729.0,STARLINK-4651,PAYLOAD,2022-10-17 22:00:00,15.72296298,0.0001517,53.2168,61.224,35.0708,29.3709,-0.0094293,-0.01135746,0.0,0 STARLINK-4651,1 53729U 22107AF  22290.91667824 -.01135746  00000-0 -94293-2 0  9994,2 53729  53.2168  61.2240 0001517  35.0708  29.3709 15.72296298  1300,6730.473000000001,91.586,353.3590000000001,351.31699999999995,0.0
53729.0,STARLINK-4651,PAYLOAD,2022-10-18 08:00:01,15.71268678,0.0001449,53.2174,59.1644,41.2485,222.2106,-0.0097013,-0.0112017,0.0,0 STARLINK-4651,1 53729U 22107AF  22291.33334491 -.01120170  00000-0 -97013-2 0  9990,2 53729  53.2174  59.1644 0001449  41.2485 222.2106 15.71268678  6913,6733.406999999997,91.646,356.24800000000016,354.296,0.0
53729.0,STARLINK-4651,PAYLOAD,2022-10-18 14:00:01,15.7065715,0.0001618,53.2176,57.9329,39.0639,199.0689,-0.0099379999999999,-0.01118432,0.0,0 STARLINK-4651,1 53729U 22107AF  22291.58334491 -.01118432  00000-0 -99380-2 0  9994,2 53729  53.2176  57.9329 0001618  39.0639 199.0689 15.70657150  1306,6735.155,91.681,358.1090000000001,355.93,0.0
53729.0,STARLINK-4651,PAYLOAD,2022-10-18 22:00:00,15.69854787,0.0001471,53.2166,56.291,33.6931,289.8105,-0.0104359999999999,-0.0113354,0.0,0 STARLINK-4651,1 53729U 22107AF  22291.91667824 -.01133540  00000-0 -10436-1 0  9991,2 53729  53.2166  56.2910 0001471  33.6931 289.8105 15.69854787  1309,6737.449000000001,91.728,360.306,358.3230000000001,0.0
53729.0,STARLINK-4651,PAYLOAD,2022-10-19 06:00:00,15.69030608,0.0001482,53.2172,54.6484,34.0228,13.8858,-0.01066,-0.01120257,0.0,0 STARLINK-4651,1 53729U 22107AF  22292.25001157 -.01120257  00000-0 -10660-1 0  9990,2 53729  53.2172  54.6484 0001482  34.0228  13.8858 15.69030608  7056,6739.809,91.776,362.672,360.675,0.0
53729.0,STARLINK-4651,PAYLOAD,2022-10-19 14:00:01,15.68216673,0.000171,53.2172,53.0119,36.6737,94.6541,-0.011007,-0.01136891,0.0,0 STARLINK-4651,1 53729U 22107AF  22292.58334491 -.01136891  00000-0 -11007-1 0  9993,2 53729  53.2172  53.0119 0001710  36.6737  94.6541 15.68216673  1306,6742.14,91.824,365.158,362.853,0.0
53729.0,STARLINK-4651,PAYLOAD,2022-10-19 22:00:00,15.67405336,0.0001456,53.2171,51.3754,46.8482,166.9216,-0.011425,-0.01140809,0.0,0 STARLINK-4651,1 53729U 22107AF  22292.91667824 -.01140809  00000-0 -11425-1 0  9997,2 53729  53.2171  51.3754 0001456  46.8482 166.9216 15.67405336  7165,6744.467,91.872,367.314,365.35,0.0
53729.0,STARLINK-4651,PAYLOAD,2022-10-20 14:00:01,15.65777512,0.0001559,53.2175,48.1086,33.8072,341.9142,-0.012188,-0.01139158,0.0,0 STARLINK-4651,1 53729U 22107AF  22293.58334491 -.01139158  00000-0 -12188-1 0  9994,2 53729  53.2175  48.1086 0001559  33.8072 341.9142 15.65777512  1305,6749.141,91.967,372.0580000000001,369.953,0.0
53729.0,STARLINK-4651,PAYLOAD,2022-10-20 22:00:00,15.64962487,0.0001668,53.2172,46.4778,33.4707,61.7607,-0.012563,-0.01136582,0.0,0 STARLINK-4651,1 53729U 22107AF  22293.91667824 -.01136582  00000-0 -12563-1 0  9995,2 53729  53.2172  46.4778 0001668  33.4707  61.7607 15.64962487  7320,6751.484,92.015,374.475,372.223,0.0
53729.0,STARLINK-4651,PAYLOAD,2022-10-21 14:00:01,15.63334173,0.0001698,53.2173,43.2233,37.339,213.977,-0.0133879999999999,-0.0113522,0.0,0 STARLINK-4651,1 53729U 22107AF  22294.58334491 -.01135220  00000-0 -13388-1 0  9994,2 53729  53.2173  43.2233 0001698  37.3390 213.9770 15.63334173  7423,6756.170999999999,92.111,379.1830000000001,376.889,0.0
53729.0,STARLINK-4651,PAYLOAD,2022-10-21 22:00:00,15.62538311,0.0001726,53.2166,41.5986,27.2683,300.6152,-0.014147,-0.01159874,0.0,0 STARLINK-4651,1 53729U 22107AF  22294.91667824 -.01159874  00000-0 -14147-1 0  9995,2 53729  53.2166  41.5986 0001726  27.2683 300.6152 15.62538311  1304,6758.465,92.158,381.496,379.163,0.0
53729.0,STARLINK-4651,PAYLOAD,2022-10-22 06:00:00,15.61705813,0.0001743,53.2173,39.9741,27.9656,15.5253,-0.014247,-0.01133311,0.0,0 STARLINK-4651,1 53729U 22107AF  22295.25001157 -.01133311  00000-0 -14247-1 0  9993,2 53729  53.2173  39.9741 0001743  27.9656  15.5253 15.61705813  7524,6760.866,92.207,383.91,381.55300000000005,0.0
53729.0,STARLINK-4651,PAYLOAD,2022-10-22 14:00:01,15.6091969,0.0001426,53.2172,38.3557,36.7033,81.3935,-0.015233,-0.01171008,0.0,0 STARLINK-4651,1 53729U 22107AF  22295.58334491 -.01171008  00000-0 -15233-1 0  9990,2 53729  53.2172  38.3557 0001426  36.7033  81.3935 15.60919690  1303,6763.136,92.253,385.966,384.037,0.0
53729.0,STARLINK-4651,PAYLOAD,2022-10-22 22:00:00,15.6008558,0.0001601,53.2169,36.7365,43.3898,148.359,-0.0153199999999999,-0.01143273,0.0,0 STARLINK-4651,1 53729U 22107AF  22295.91667824 -.01143273  00000-0 -15320-1 0  9996,2 53729  53.2169  36.7365 0001601  43.3898 148.3590 15.60085580  7631,6765.547,92.303,388.495,386.328,0.0
53729.0,STARLINK-4651,PAYLOAD,2022-10-23 14:00:01,15.58459422,0.0001396999999999,53.2174,33.5058,42.9779,293.1202,-0.016324,-0.01144412,0.0,0 STARLINK-4651,1 53729U 22107AF  22296.58334491 -.01144412  00000-0 -16324-1 0  9992,2 53729  53.2174  33.5058 0001397  42.9779 293.1202 15.58459422  1300,6770.252,92.399,393.06300000000016,391.171,0.0
53729.0,STARLINK-4651,PAYLOAD,2022-10-23 22:00:00,15.57646942,0.0001742,53.2168,31.8924,32.9605,13.8458,-0.0168509999999999,-0.01145508,0.0,0 STARLINK-4651,1 53729U 22107AF  22296.91667824 -.01145508  00000-0 -16851-1 0  9990,2 53729  53.2168  31.8924 0001742  32.9605  13.8458 15.57646942  1301,6772.606,92.447,395.651,393.291,0.0
53729.0,STARLINK-4651,PAYLOAD,2022-10-24 14:00:01,15.56017896,0.0001561,53.2172,28.6737,51.1202,134.1692,-0.017855,-0.01141981,0.0,0 STARLINK-4651,1 53729U 22107AF  22297.58334491 -.01141981  00000-0 -17855-1 0  9991,2 53729  53.2172  28.6737 0001561  51.1202 134.1692 15.56017896  1303,6777.331999999999,92.544,400.255,398.139,0.0
53729.0,STARLINK-4651,PAYLOAD,2022-10-24 22:00:00,15.55199907,0.0001595,53.217,27.066,42.0217,211.0458,-0.018327,-0.01137504,0.0,0 STARLINK-4651,1 53729U 22107AF  22297.91667824 -.01137504  00000-0 -18327-1 0  9998,2 53729  53.2170  27.0660 0001595  42.0217 211.0458 15.55199907  1309,6779.709,92.593,402.655,400.492,0.0
53729.0,STARLINK-4651,PAYLOAD,2022-10-25 14:00:01,15.53577341,0.0001616,53.2174,23.8591,40.04,345.6409,-0.019576,-0.01143787,0.0,0 STARLINK-4651,1 53729U 22107AF  22298.58334491 -.01143787  00000-0 -19576-1 0  9990,2 53729  53.2174  23.8591 0001616  40.0400 345.6409 15.53577341  1306,6784.428000000001,92.689,407.39,405.197,0.0
53729.0,STARLINK-4651,PAYLOAD,2022-10-25 22:00:01,15.52766637,0.0001824,53.2171,22.2572,30.1877,60.3982,-0.020224,-0.011469,0.0,0 STARLINK-4651,1 53729U 22107AF  22298.91668981 -.01146900  00000-0 -20224-1 0  9993,2 53729  53.2171  22.2572 0001824  30.1877  60.3982 15.52766637  8103,6786.79,92.738,409.892,407.417,0.0
53729.0,STARLINK-4651,PAYLOAD,2022-10-26 14:00:01,15.51146019,0.0001628,53.2175,19.0624,49.6588,167.6023,-0.021351,-0.01142239,0.0,0 STARLINK-4651,1 53729U 22107AF  22299.58334491 -.01142239  00000-0 -21351-1 0  9996,2 53729  53.2175  19.0624 0001628  49.6588 167.6023 15.51146019  1302,6791.516,92.835,414.487,412.275,0.0
53729.0,STARLINK-4651,PAYLOAD,2022-10-26 22:00:00,15.50225901,0.0001543,53.2175,17.4657,58.503,220.6873,-0.0085738,-0.00464876,0.0,0 STARLINK-4651,1 53729U 22107AF  22299.91667824 -.00464876  00000-0 -85738-2 0  9995,2 53729  53.2175  17.4657 0001543  58.5030 220.6873 15.50225901  1307,6794.203,92.89,417.116,415.02,0.0
53729.0,STARLINK-4651,PAYLOAD,2022-10-27 14:00:01,15.49534881,0.0001551999999999,53.2172,14.2812,44.0323,357.0751,-0.022416,-0.01133018,0.0,0 STARLINK-4651,1 53729U 22107AF  22300.58335648 -.01133018  00000-0 -22416-1 0  9992,2 53729  53.2172  14.2812 0001552  44.0323 357.0751 15.49534881  1305,6796.223000000001,92.931,419.143,417.033,0.0
53729.0,STARLINK-4651,PAYLOAD,2022-10-27 22:00:00,15.48739833,0.0001735,53.2171,12.6886,37.467,63.5591,-0.023635,-0.01176214,0.0,0 STARLINK-4651,1 53729U 22107AF  22300.91667824 -.01176214  00000-0 -23635-1 0  9992,2 53729  53.2171  12.6886 0001735  37.4670  63.5591 15.48739833  1305,6798.5480000000025,92.979,421.593,419.234,0.0
53729.0,STARLINK-4651,PAYLOAD,2022-10-28 14:00:01,15.47104542,0.0001498,53.2172,9.5133,54.3822,163.7585,-0.024745,-0.01163823,0.0,0 STARLINK-4651,1 53729U 22107AF  22301.58335648 -.01163823  00000-0 -24745-1 0  9997,2 53729  53.2172   9.5133 0001498  54.3822 163.7585 15.47104542  1307,6803.3380000000025,93.077,426.222,424.184,0.0
